[{"OBJECT_NAME":"KHAYYAM","OBJECT_ID":"2022-096A","EPOCH":"2026-03-09T23:16:46.350624","MEAN_MOTION":15.24771015,"ECCENTRICITY":0.00024081,"INCLINATION":97.351,"RA_OF_ASC_NODE":334.9969,"ARG_OF_PERICENTER":70.558,"MEAN_ANOMALY":289.5917,"EPHEMERIS_TYPE":0,"CLASSIFICATION_TYPE":"U","NORAD_CAT_ID":53370,"ELEMENT_SET_NO":999,"REV_AT_EPOCH":19946,"BSTAR":0.00026923471,"MEAN_MOTION_DOT":6.603e-5,"MEAN_MOTION_DDOT":0},{"OBJECT_NAME":"GALAPAGOS-UTE-SWSU","OBJECT_ID":"2025-313AH","EPOCH":"2026-03-09T22:34:20.965152","MEAN_MOTION":15.21376357,"ECCENTRICITY":0.00141435,"INCLINATION":97.3994,"RA_OF_ASC_NODE":145.1857,"ARG_OF_PERICENTER":358.5114,"MEAN_ANOMALY":1.6077,"EPHEMERIS_TYPE":0,"CLASSIFICATION_TYPE":"U","NORAD_CAT_ID":67279,"ELEMENT_SET_NO":999,"REV_AT_EPOCH":1085,"BSTAR":0.00042377017,"MEAN_MOTION_DOT":9.461e-5,"MEAN_MOTION_DDOT":0}]
